SITRO-AIS-58            
1 67258U 25313L   26024.86753002  .00016126  00000+0  74271-3 0  9996
2 67258  97.4084 101.8413 0017248 143.3208 216.9212 15.20240876  4151
2025-313M               
1 67259U 25313M   26024.92855610  .00021320  00000+0  96997-3 0  9993
2 67259  97.4126 101.9392 0016394 141.7650 218.4751 15.20616620  4160
SITRO-AIS-60            
1 67260U 25313N   26024.93152027  .00011663  00000+0  53820-3 0  9995
2 67260  97.4092 101.9116 0016735 143.2945 216.9440 15.20258688  4165
2025-313P               
1 67261U 25313P   26024.92566021  .00028182  00000+0  12684-2 0  9994
2 67261  97.4125 101.9434 0016037 142.1157 218.1210 15.20935600  4169
2025-313Q               
1 67262U 25313Q   26024.92866992  .00018022  00000+0  82219-3 0  9999
2 67262  97.4094 101.9162 0016273 143.8796 216.3542 15.20558383  4169
DCS-1                   
1 67263U 25313R   26024.86358118  .00016524  00000+0  75640-3 0  9994
2 67263  97.4106 101.8665 0016264 143.0653 217.1705 15.20462477  4152
2025-313S               
1 67264U 25313S   26024.93119882  .00011355  00000+0  52436-3 0  9991
2 67264  97.4177 101.9364 0016386 147.7091 212.5151 15.20248041  4164
SITRO-TD-4              
1 67265U 25313T   26024.92890861  .00016111  00000+0  73725-3 0  9993
2 67265  97.4086 101.9242 0016223 143.6720 216.5620 15.20478958  4160
SITRO-AIS-65            
1 67266U 25313U   26024.92878453  .00015091  00000+0  69072-3 0  9993
2 67266  97.4114 101.9336 0016134 142.4566 217.7800 15.20488877  4167
2025-313V               
1 67267U 25313V   26024.92784226  .00018420  00000+0  83970-3 0  9990
2 67267  97.4095 101.9200 0015297 147.8878 212.3292 15.20594270  4161
ZORKY-2M 7              
1 67268U 25313W   26024.92941467  .00012499  00000+0  57411-3 0  9994
2 67268  97.4095 101.9162 0016332 143.1430 217.0932 15.20406543  4161
2025-313X               
1 67269U 25313X   26024.92680244  .00022236  00000+0  10080-2 0  9998
2 67269  97.4121 101.9389 0016023 141.7690 218.4685 15.20737178  4163
