CCSDS_OMM_VERS = 2.0
CREATION_DATE  = 
ORIGINATOR     = 

OBJECT_NAME    = SITRO-AIS-58
OBJECT_ID      = 2025-313L
CENTER_NAME    = EARTH
REF_FRAME      = TEME
TIME_SYSTEM    = UTC
MEAN_ELEMENT_THEORY = SGP/SGP4

EPOCH          = 2026-01-24T20:49:14.593728
MEAN_MOTION    = 15.20240876
ECCENTRICITY   = .00172481
INCLINATION    = 97.4084
RA_OF_ASC_NODE = 101.8413
ARG_OF_PERICENTER = 143.3208
MEAN_ANOMALY   = 216.9212

EPHEMERIS_TYPE = 0
CLASSIFICATION_TYPE = U
NORAD_CAT_ID   = 67258
ELEMENT_SET_NO = 999
REV_AT_EPOCH   = 415
BSTAR          = .74270548E-3
MEAN_MOTION_DOT = .16126E-3
MEAN_MOTION_DDOT = 0

CCSDS_OMM_VERS = 2.0
CREATION_DATE  = 
ORIGINATOR     = 

OBJECT_NAME    = 2025-313M
OBJECT_ID      = 2025-313M
CENTER_NAME    = EARTH
REF_FRAME      = TEME
TIME_SYSTEM    = UTC
MEAN_ELEMENT_THEORY = SGP/SGP4

EPOCH          = 2026-01-24T22:17:07.247040
MEAN_MOTION    = 15.20616620
ECCENTRICITY   = .00163946
INCLINATION    = 97.4126
RA_OF_ASC_NODE = 101.9392
ARG_OF_PERICENTER = 141.7650
MEAN_ANOMALY   = 218.4751

EPHEMERIS_TYPE = 0
CLASSIFICATION_TYPE = U
NORAD_CAT_ID   = 67259
ELEMENT_SET_NO = 999
REV_AT_EPOCH   = 416
BSTAR          = .96997174E-3
MEAN_MOTION_DOT = .2132E-3
MEAN_MOTION_DDOT = 0

CCSDS_OMM_VERS = 2.0
CREATION_DATE  = 
ORIGINATOR     = 

OBJECT_NAME    = SITRO-AIS-60
OBJECT_ID      = 2025-313N
CENTER_NAME    = EARTH
REF_FRAME      = TEME
TIME_SYSTEM    = UTC
MEAN_ELEMENT_THEORY = SGP/SGP4

EPOCH          = 2026-01-24T22:21:23.351328
MEAN_MOTION    = 15.20258688
ECCENTRICITY   = .00167355
INCLINATION    = 97.4092
RA_OF_ASC_NODE = 101.9116
ARG_OF_PERICENTER = 143.2945
MEAN_ANOMALY   = 216.9440

EPHEMERIS_TYPE = 0
CLASSIFICATION_TYPE = U
NORAD_CAT_ID   = 67260
ELEMENT_SET_NO = 999
REV_AT_EPOCH   = 416
BSTAR          = .53819741E-3
MEAN_MOTION_DOT = .11663E-3
MEAN_MOTION_DDOT = 0

CCSDS_OMM_VERS = 2.0
CREATION_DATE  = 
ORIGINATOR     = 

OBJECT_NAME    = 2025-313P
OBJECT_ID      = 2025-313P
CENTER_NAME    = EARTH
REF_FRAME      = TEME
TIME_SYSTEM    = UTC
MEAN_ELEMENT_THEORY = SGP/SGP4

EPOCH          = 2026-01-24T22:12:57.042144
MEAN_MOTION    = 15.20935600
ECCENTRICITY   = .00160376
INCLINATION    = 97.4125
RA_OF_ASC_NODE = 101.9434
ARG_OF_PERICENTER = 142.1157
MEAN_ANOMALY   = 218.1210

EPHEMERIS_TYPE = 0
CLASSIFICATION_TYPE = U
NORAD_CAT_ID   = 67261
ELEMENT_SET_NO = 999
REV_AT_EPOCH   = 416
BSTAR          = .12683656E-2
MEAN_MOTION_DOT = .28182E-3
MEAN_MOTION_DDOT = 0

CCSDS_OMM_VERS = 2.0
CREATION_DATE  = 
ORIGINATOR     = 

OBJECT_NAME    = 2025-313Q
OBJECT_ID      = 2025-313Q
CENTER_NAME    = EARTH
REF_FRAME      = TEME
TIME_SYSTEM    = UTC
MEAN_ELEMENT_THEORY = SGP/SGP4

EPOCH          = 2026-01-24T22:17:17.081088
MEAN_MOTION    = 15.20558383
ECCENTRICITY   = .00162733
INCLINATION    = 97.4094
RA_OF_ASC_NODE = 101.9162
ARG_OF_PERICENTER = 143.8796
MEAN_ANOMALY   = 216.3542

EPHEMERIS_TYPE = 0
CLASSIFICATION_TYPE = U
NORAD_CAT_ID   = 67262
ELEMENT_SET_NO = 999
REV_AT_EPOCH   = 416
BSTAR          = .82218661E-3
MEAN_MOTION_DOT = .18022E-3
MEAN_MOTION_DDOT = 0

CCSDS_OMM_VERS = 2.0
CREATION_DATE  = 
ORIGINATOR     = 

OBJECT_NAME    = DCS-1
OBJECT_ID      = 2025-313R
CENTER_NAME    = EARTH
REF_FRAME      = TEME
TIME_SYSTEM    = UTC
MEAN_ELEMENT_THEORY = SGP/SGP4

EPOCH          = 2026-01-24T20:43:33.413952
MEAN_MOTION    = 15.20462477
ECCENTRICITY   = .00162641
INCLINATION    = 97.4106
RA_OF_ASC_NODE = 101.8665
ARG_OF_PERICENTER = 143.0653
MEAN_ANOMALY   = 217.1705

EPHEMERIS_TYPE = 0
CLASSIFICATION_TYPE = U
NORAD_CAT_ID   = 67263
ELEMENT_SET_NO = 999
REV_AT_EPOCH   = 415
BSTAR          = .75639866E-3
MEAN_MOTION_DOT = .16524E-3
MEAN_MOTION_DDOT = 0

CCSDS_OMM_VERS = 2.0
CREATION_DATE  = 
ORIGINATOR     = 

OBJECT_NAME    = 2025-313S
OBJECT_ID      = 2025-313S
CENTER_NAME    = EARTH
REF_FRAME      = TEME
TIME_SYSTEM    = UTC
MEAN_ELEMENT_THEORY = SGP/SGP4

EPOCH          = 2026-01-24T22:20:55.578048
MEAN_MOTION    = 15.20248041
ECCENTRICITY   = .00163863
INCLINATION    = 97.4177
RA_OF_ASC_NODE = 101.9364
ARG_OF_PERICENTER = 147.7091
MEAN_ANOMALY   = 212.5151

EPHEMERIS_TYPE = 0
CLASSIFICATION_TYPE = U
NORAD_CAT_ID   = 67264
ELEMENT_SET_NO = 999
REV_AT_EPOCH   = 416
BSTAR          = .52436028E-3
MEAN_MOTION_DOT = .11355E-3
MEAN_MOTION_DDOT = 0

CCSDS_OMM_VERS = 2.0
CREATION_DATE  = 
ORIGINATOR     = 

OBJECT_NAME    = SITRO-TD-4
OBJECT_ID      = 2025-313T
CENTER_NAME    = EARTH
REF_FRAME      = TEME
TIME_SYSTEM    = UTC
MEAN_ELEMENT_THEORY = SGP/SGP4

EPOCH          = 2026-01-24T22:17:37.703904
MEAN_MOTION    = 15.20478958
ECCENTRICITY   = .00162236
INCLINATION    = 97.4086
RA_OF_ASC_NODE = 101.9242
ARG_OF_PERICENTER = 143.6720
MEAN_ANOMALY   = 216.5620

EPHEMERIS_TYPE = 0
CLASSIFICATION_TYPE = U
NORAD_CAT_ID   = 67265
ELEMENT_SET_NO = 999
REV_AT_EPOCH   = 416
BSTAR          = .73724644E-3
MEAN_MOTION_DOT = .16111E-3
MEAN_MOTION_DDOT = 0

CCSDS_OMM_VERS = 2.0
CREATION_DATE  = 
ORIGINATOR     = 

OBJECT_NAME    = SITRO-AIS-65
OBJECT_ID      = 2025-313U
CENTER_NAME    = EARTH
REF_FRAME      = TEME
TIME_SYSTEM    = UTC
MEAN_ELEMENT_THEORY = SGP/SGP4

EPOCH          = 2026-01-24T22:17:26.983392
MEAN_MOTION    = 15.20488877
ECCENTRICITY   = .00161345
INCLINATION    = 97.4114
RA_OF_ASC_NODE = 101.9336
ARG_OF_PERICENTER = 142.4566
MEAN_ANOMALY   = 217.7800

EPHEMERIS_TYPE = 0
CLASSIFICATION_TYPE = U
NORAD_CAT_ID   = 67266
ELEMENT_SET_NO = 999
REV_AT_EPOCH   = 416
BSTAR          = .69071605E-3
MEAN_MOTION_DOT = .15091E-3
MEAN_MOTION_DDOT = 0

CCSDS_OMM_VERS = 2.0
CREATION_DATE  = 
ORIGINATOR     = 

OBJECT_NAME    = 2025-313V
OBJECT_ID      = 2025-313V
CENTER_NAME    = EARTH
REF_FRAME      = TEME
TIME_SYSTEM    = UTC
MEAN_ELEMENT_THEORY = SGP/SGP4

EPOCH          = 2026-01-24T22:16:05.571264
MEAN_MOTION    = 15.20594270
ECCENTRICITY   = .00152971
INCLINATION    = 97.4095
RA_OF_ASC_NODE = 101.9200
ARG_OF_PERICENTER = 147.8878
MEAN_ANOMALY   = 212.3292

EPHEMERIS_TYPE = 0
CLASSIFICATION_TYPE = U
NORAD_CAT_ID   = 67267
ELEMENT_SET_NO = 999
REV_AT_EPOCH   = 416
BSTAR          = .83970181E-3
MEAN_MOTION_DOT = .1842E-3
MEAN_MOTION_DDOT = 0

CCSDS_OMM_VERS = 2.0
CREATION_DATE  = 
ORIGINATOR     = 

OBJECT_NAME    = ZORKY-2M 7
OBJECT_ID      = 2025-313W
CENTER_NAME    = EARTH
REF_FRAME      = TEME
TIME_SYSTEM    = UTC
MEAN_ELEMENT_THEORY = SGP/SGP4

EPOCH          = 2026-01-24T22:18:21.427488
MEAN_MOTION    = 15.20406543
ECCENTRICITY   = .00163324
INCLINATION    = 97.4095
RA_OF_ASC_NODE = 101.9162
ARG_OF_PERICENTER = 143.1430
MEAN_ANOMALY   = 217.0932

EPHEMERIS_TYPE = 0
CLASSIFICATION_TYPE = U
NORAD_CAT_ID   = 67268
ELEMENT_SET_NO = 999
REV_AT_EPOCH   = 416
BSTAR          = .57410576E-3
MEAN_MOTION_DOT = .12499E-3
MEAN_MOTION_DDOT = 0

CCSDS_OMM_VERS = 2.0
CREATION_DATE  = 
ORIGINATOR     = 

OBJECT_NAME    = 2025-313X
OBJECT_ID      = 2025-313X
CENTER_NAME    = EARTH
REF_FRAME      = TEME
TIME_SYSTEM    = UTC
MEAN_ELEMENT_THEORY = SGP/SGP4

EPOCH          = 2026-01-24T22:14:35.730816
MEAN_MOTION    = 15.20737178
ECCENTRICITY   = .00160235
INCLINATION    = 97.4121
RA_OF_ASC_NODE = 101.9389
ARG_OF_PERICENTER = 141.7690
MEAN_ANOMALY   = 218.4685

EPHEMERIS_TYPE = 0
CLASSIFICATION_TYPE = U
NORAD_CAT_ID   = 67269
ELEMENT_SET_NO = 999
REV_AT_EPOCH   = 416
BSTAR          = .10079967E-2
MEAN_MOTION_DOT = .22236E-3
MEAN_MOTION_DDOT = 0

